{
  "norad_id": 64765,
  "name": "STARLINK-34566",
  "history": [
    {
      "epoch": "2026-03-28T21:27:43.547328Z",
      "apogee_km": 476.3028089203017,
      "perigee_km": 474.0562917551015,
      "latitude_deg": -1.8563181332288525e-05,
      "longitude_deg": 5.191986063087877,
      "height_km": 475.9032212280676,
      "semi_major_axis_km": 6853.316550337701,
      "eccentricity": 0.0001639,
      "inclination_deg": 53.1601,
      "raan_deg": 153.4316,
      "arg_perigee_deg": 81.0918,
      "mean_anomaly_deg": 279.0268,
      "mean_motion_rev_day": 15.30211896
    }
  ]
}